{
  "norad_id": 52706,
  "name": "STARLINK-3970",
  "history": [
    {
      "epoch": "2026-03-28T21:23:58.203168Z",
      "apogee_km": 540.7869365945226,
      "perigee_km": 538.7092189902596,
      "latitude_deg": -6.400684930853454e-05,
      "longitude_deg": -99.38044298386251,
      "height_km": 540.7192435843118,
      "semi_major_axis_km": 6917.885077792391,
      "eccentricity": 0.00015017,
      "inclination_deg": 53.2187,
      "raan_deg": 47.9177,
      "arg_perigee_deg": 94.168,
      "mean_anomaly_deg": 265.9483,
      "mean_motion_rev_day": 15.08838466
    },
    {
      "epoch": "2026-03-29T03:45:30.720384Z",
      "apogee_km": 540.7791907953097,
      "perigee_km": 538.7135108267576,
      "latitude_deg": 1.0951228092810702e-05,
      "longitude_deg": 163.7836681963156,
      "height_km": 540.7114474125248,
      "semi_major_axis_km": 6917.883350811034,
      "eccentricity": 0.0001493,
      "inclination_deg": 53.2187,
      "raan_deg": 46.7284,
      "arg_perigee_deg": 93.8548,
      "mean_anomaly_deg": 266.2615,
      "mean_motion_rev_day": 15.08839031
    },
    {
      "epoch": "2026-03-30T03:36:19.361376Z",
      "apogee_km": 540.664133604133,
      "perigee_km": 538.8986808266127,
      "latitude_deg": -2.3212362658112786e-05,
      "longitude_deg": 160.64101748552181,
      "height_km": 540.7067523866544,
      "semi_major_axis_km": 6917.918407215373,
      "eccentricity": 0.0001276,
      "inclination_deg": 53.2187,
      "raan_deg": 42.2678,
      "arg_perigee_deg": 91.9077,
      "mean_anomaly_deg": 268.2061,
      "mean_motion_rev_day": 15.08827562
    },
    {
      "epoch": "2026-03-30T03:36:19.362240Z",
      "apogee_km": 540.6639260665825,
      "perigee_km": 538.898888364165,
      "latitude_deg": -2.0455783593715356e-05,
      "longitude_deg": 160.64101592515573,
      "height_km": 540.706745479631,
      "semi_major_axis_km": 6917.918407215373,
      "eccentricity": 0.00012757,
      "inclination_deg": 53.2187,
      "raan_deg": 42.2678,
      "arg_perigee_deg": 91.9077,
      "mean_anomaly_deg": 268.2061,
      "mean_motion_rev_day": 15.08827562
    },
    {
      "epoch": "2026-03-30T21:05:33.785664Z",
      "apogee_km": 540.6048127882696,
      "perigee_km": 538.9346917401381,
      "latitude_deg": 4.399897813011345e-05,
      "longitude_deg": -105.65791243923306,
      "height_km": 540.6556885873026,
      "semi_major_axis_km": 6917.9067522642035,
      "eccentricity": 0.00012071,
      "inclination_deg": 53.2186,
      "raan_deg": 38.9971,
      "arg_perigee_deg": 89.3071,
      "mean_anomaly_deg": 270.806,
      "mean_motion_rev_day": 15.08831375
    },
    {
      "epoch": "2026-03-31T12:59:24.222912Z",
      "apogee_km": 540.7779675727061,
      "perigee_km": 538.63910808932,
      "latitude_deg": 4.394336901658076e-06,
      "longitude_deg": 12.256623109068325,
      "height_km": 540.674693004059,
      "semi_major_axis_km": 6917.845537831013,
      "eccentricity": 0.00015459,
      "inclination_deg": 53.2196,
      "raan_deg": 36.0247,
      "arg_perigee_deg": 93.7781,
      "mean_anomaly_deg": 266.3388,
      "mean_motion_rev_day": 15.08851402
    }
  ]
}